NORAD_CAT_ID,OBJECT_NAME,OBJECT_TYPE,EPOCH,MEAN_MOTION,ECCENTRICITY,INCLINATION,RA_OF_ASC_NODE,ARG_OF_PERICENTER,MEAN_ANOMALY,BSTAR,MEAN_MOTION_DOT,MEAN_MOTION_DDOT,TLE_LINE0,TLE_LINE1,TLE_LINE2,SEMIMAJOR_AXIS,PERIOD,APOGEE,PERIGEE,DECAYED
50186.0,STARLINK-3274,PAYLOAD,2023-12-25 22:28:30,15.08837195,0.0001772,53.217,271.7963,86.3722,273.7472,-0.00010258,-1.92e-05,0.0,0 STARLINK-3274,1 50186U 21125AG  23359.93646097 -.00001920  00000-0 -10258-3 0  9990,2 50186  53.2170 271.7963 0001772  86.3722 273.7472 15.08837195114960,6917.889,95.438,540.98,538.528,0.0
50186.0,STARLINK-3274,PAYLOAD,2023-12-26 03:14:39,15.08837509,0.0001746,53.2175,270.8974,105.2774,254.8411,1.6823e-05,-2e-07,0.0,0 STARLINK-3274,1 50186U 21125AG  23360.13518022 -.00000020  00000-0  16823-4 0  9994,2 50186  53.2175 270.8974 0001746 105.2774 254.8411 15.08837509114519,6917.888,95.438,540.961,538.545,0.0
50186.0,STARLINK-3274,PAYLOAD,2023-12-26 22:19:17,15.08848942,0.0002,53.2183,267.3421,101.395,258.7267,-0.00020795,-3.597e-05,0.0,0 STARLINK-3274,1 50186U 21125AG  23360.93005800 -.00003597  00000-0 -20795-3 0  9992,2 50186  53.2183 267.3421 0002000 101.3950 258.7267 15.08848942115115,6917.853,95.437,541.102,538.334,0.0
50186.0,STARLINK-3274,PAYLOAD,2023-12-27 01:30:03,15.0885214,0.0001716,53.2175,266.7408,90.6896,269.4293,-9.7354e-05,-1.838e-05,0.0,0 STARLINK-3274,1 50186U 21125AG  23361.06253513 -.00001838  00000-0 -97354-4 0  9995,2 50186  53.2175 266.7408 0001716  90.6896 269.4293 15.08852140114657,6917.843,95.437,540.895,538.521,0.0
50186.0,STARLINK-3274,PAYLOAD,2023-12-27 22:10:04,15.08836725,0.0001728,53.2175,262.8708,77.0197,283.0988,6.5526e-05,7.55e-06,0.0,0 STARLINK-3274,1 50186U 21125AG  23361.92366670  .00000755  00000-0  65526-4 0  9990,2 50186  53.2175 262.8708 0001728  77.0197 283.0988 15.08836725115265,6917.89,95.438,540.951,538.56,0.0
50186.0,STARLINK-3274,PAYLOAD,2023-12-28 02:56:14,15.08839709,0.0001718,53.217,261.9813,79.853,280.2656,0.00010608,1.401e-05,0.0,0 STARLINK-3274,1 50186U 21125AG  23362.12238590  .00001401  00000-0  10608-3 0  9991,2 50186  53.2170 261.9813 0001718  79.8530 280.2656 15.08839709114813,6917.881,95.438,540.935,538.558,0.0
50186.0,STARLINK-3274,PAYLOAD,2023-12-29 02:47:00,15.08846761,0.0001729,53.2179,257.5199,78.1722,281.9464,0.00011073,1.475e-05,0.0,0 STARLINK-3274,1 50186U 21125AG  23363.11598253  .00001475  00000-0  11073-3 0  9994,2 50186  53.2179 257.5199 0001729  78.1722 281.9464 15.08846761115448,6917.86,95.437,540.921,538.529,0.0
50186.0,STARLINK-3274,PAYLOAD,2023-12-29 21:51:38,15.08840266,0.0001633,53.218,253.9522,96.312,263.8058,5.6216e-05,6.07e-06,0.0,0 STARLINK-3274,1 50186U 21125AG  23363.91086485  .00000607  00000-0  56216-4 0  9996,2 50186  53.2180 253.9522 0001633  96.3120 263.8058 15.08840266115563,6917.88,95.438,540.874,538.615,0.0
50186.0,STARLINK-3274,PAYLOAD,2023-12-29 23:27:01,15.08834499,0.0001668,53.2187,253.6506,82.984,277.1342,0.00023761,3.495e-05,0.0,0 STARLINK-3274,1 50186U 21125AG  23363.97710438  .00003495  00000-0  23761-3 0  9990,2 50186  53.2187 253.6506 0001668  82.9840 277.1342 15.08834499115090,6917.897,95.438,540.916,538.608,0.0
50186.0,STARLINK-3274,PAYLOAD,2023-12-30 21:42:25,15.08836729,0.0001609,53.2173,249.4919,117.0494,243.0663,5.22e-05,5.43e-06,0.0,0 STARLINK-3274,1 50186U 21125AG  23364.90446671  .00000543  00000-0  52200-4 0  9991,2 50186  53.2173 249.4919 0001609 117.0494 243.0663 15.08836729115711,6917.89,95.438,540.868,538.642,0.0
50186.0,STARLINK-3274,PAYLOAD,2023-12-31 02:28:35,15.08839611,0.0001473,53.2166,248.6023,95.3348,264.7812,-2.1035e-05,-6.23e-06,0.0,0 STARLINK-3274,1 50186U 21125AG  23365.10318810 -.00000623  00000-0 -21035-4 0  9990,2 50186  53.2166 248.6023 0001473  95.3348 264.7812 15.08839611115264,6917.882,95.438,540.766,538.728,0.0
50186.0,STARLINK-3274,PAYLOAD,2023-12-31 21:33:12,15.08843294,0.000143,53.2165,245.0344,95.4714,264.6442,5.024e-05,5.12e-06,0.0,0 STARLINK-3274,1 50186U 21125AG  23365.89806565  .00000512  00000-0  50240-4 0  9990,2 50186  53.2165 245.0344 0001430  95.4714 264.6442 15.08843294115867,6917.87,95.437,540.725,538.746,0.0
50186.0,STARLINK-3274,PAYLOAD,2024-01-01 19:48:36,15.08838193,0.000151,53.2164,240.871,98.3576,261.7587,0.00010893,1.446e-05,0.0,0 STARLINK-3274,1 50186U 21125AG  24001.82542797  .00001446  00000-0  10893-3 0  9991,2 50186  53.2164 240.8710 0001510  98.3576 261.7587 15.08838193115526,6917.886,95.438,540.796,538.706,0.0
50186.0,STARLINK-3274,PAYLOAD,2024-01-01 21:24:00,15.08838541,0.0001506,53.2164,240.5737,98.1278,261.9885,0.00010992,1.462e-05,0.0,0 STARLINK-3274,1 50186U 21125AG  24001.89166793  .00001462  00000-0  10992-3 0  9994,2 50186  53.2164 240.5737 0001506  98.1278 261.9885 15.08838541116019,6917.885,95.438,540.792,538.708,0.0
50186.0,STARLINK-3274,PAYLOAD,2024-01-02 02:10:09,15.08840221,0.0001502,53.2164,239.6817,97.4054,262.7109,0.00011687,1.573e-05,0.0,0 STARLINK-3274,1 50186U 21125AG  24002.09038690  .00001573  00000-0  11687-3 0  9996,2 50186  53.2164 239.6817 0001502  97.4054 262.7109 15.08840221116046,6917.88,95.438,540.784,538.706,0.0
50186.0,STARLINK-3274,PAYLOAD,2024-01-02 21:14:46,15.08843974,0.0001553,53.2165,236.1129,102.8586,257.2579,5.0895e-05,5.22e-06,0.0,0 STARLINK-3274,1 50186U 21125AG  24002.88526499  .00000522  00000-0  50895-4 0  9990,2 50186  53.2165 236.1129 0001553 102.8586 257.2579 15.08843974116163,6917.868,95.437,540.808,538.659,0.0
50186.0,STARLINK-3274,PAYLOAD,2024-01-03 02:00:56,15.08845371,0.0001494,53.2164,235.2212,93.7227,266.3936,5.314e-05,5.58e-06,0.0,0 STARLINK-3274,1 50186U 21125AG  24003.08398372  .00000558  00000-0  53140-4 0  9995,2 50186  53.2164 235.2212 0001494  93.7227 266.3936 15.08845371115710,6917.864,95.437,540.763,538.695,0.0
50186.0,STARLINK-3274,PAYLOAD,2024-01-03 19:30:11,15.08836901,0.0001485,53.2163,231.9492,87.9427,272.1735,1.7365e-05,-1.2e-07,0.0,0 STARLINK-3274,1 50186U 21125AG  24003.81263029 -.00000012  00000-0  17365-4 0  9991,2 50186  53.2163 231.9492 0001485  87.9427 272.1735 15.08836901115833,6917.89,95.438,540.782,538.728,0.0
50186.0,STARLINK-3274,PAYLOAD,2024-01-03 22:40:57,15.08837699,0.0001479,53.2162,231.3542,83.0464,277.0696,1.8669e-05,9e-08,0.0,0 STARLINK-3274,1 50186U 21125AG  24003.94511011  .00000009  00000-0  18669-4 0  9995,2 50186  53.2162 231.3542 0001479  83.0464 277.0696 15.08837699116323,6917.887,95.438,540.776,538.729,0.0
50186.0,STARLINK-3274,PAYLOAD,2024-01-04 14:34:48,15.08838317,0.0001468,53.216,228.3803,82.1989,277.917,2.7349e-05,1.47e-06,0.0,0 STARLINK-3274,1 50186U 21125AG  24004.60750979  .00000147  00000-0  27349-4 0  9995,2 50186  53.2160 228.3803 0001468  82.1989 277.9170 15.08838317116422,6917.886,95.438,540.766,538.735,0.0
50186.0,STARLINK-3274,PAYLOAD,2024-01-04 20:56:21,15.08842439,0.0001529,53.2159,227.1943,76.2843,283.8319,4.9404e-05,4.98e-06,0.0,0 STARLINK-3274,1 50186U 21125AG  24004.87246640  .00000498  00000-0  49404-4 0  9994,2 50186  53.2159 227.1943 0001529  76.2843 283.8319 15.08842439115984,6917.873,95.437,540.796,538.68,0.0
50186.0,STARLINK-3274,PAYLOAD,2024-01-05 14:25:35,15.08837914,0.0001437,53.2155,223.9219,87.1685,272.9472,6.8892e-05,8.09e-06,0.0,0 STARLINK-3274,1 50186U 21125AG  24005.60110756  .00000809  00000-0  68892-4 0  9992,2 50186  53.2155 223.9219 0001437  87.1685 272.9472 15.08837914116570,6917.887,95.438,540.746,538.758,0.0
50186.0,STARLINK-3274,PAYLOAD,2024-01-05 20:47:08,15.08839423,0.0001447,53.2155,222.7326,85.6532,274.4626,6.4129e-05,7.33e-06,0.0,0 STARLINK-3274,1 50186U 21125AG  24005.86606709  .00000733  00000-0  64129-4 0  9993,2 50186  53.2155 222.7326 0001447  85.6532 274.4626 15.08839423116611,6917.882,95.438,540.748,538.746,0.0
50186.0,STARLINK-3274,PAYLOAD,2024-01-06 19:02:32,15.08837155,0.0001606,53.2165,218.5691,105.3984,254.7186,-1.143e-05,-4.7e-06,0.0,0 STARLINK-3274,1 50186U 21125AG  24006.79343107 -.00000470  00000-0 -11430-4 0  9993,2 50186  53.2165 218.5691 0001606 105.3984 254.7186 15.08837155116283,6917.889,95.438,540.865,538.643,0.0
50186.0,STARLINK-3274,PAYLOAD,2024-01-06 20:37:55,15.08836582,0.0001559,53.2164,218.2718,103.0126,257.104,-1.9717e-05,-6.02e-06,0.0,0 STARLINK-3274,1 50186U 21125AG  24006.85967154 -.00000602  00000-0 -19717-4 0  9997,2 50186  53.2164 218.2718 0001559 103.0126 257.1040 15.08836582116761,6917.891,95.438,540.834,538.677,0.0
50186.0,STARLINK-3274,PAYLOAD,2024-01-06 23:48:41,15.08836917,0.0001522,53.2161,217.6769,101.4408,258.6755,-1.8285e-05,-5.79e-06,0.0,0 STARLINK-3274,1 50186U 21125AG  24006.99215145 -.00000579  00000-0 -18285-4 0  9990,2 50186  53.2161 217.6769 0001522 101.4408 258.6755 15.08836917116785,6917.89,95.438,540.808,538.702,0.0
50186.0,STARLINK-3274,PAYLOAD,2024-01-07 20:28:42,15.0884005,0.0001382,53.2155,213.811,91.0621,269.053,4.763e-05,4.7e-06,0.0,0 STARLINK-3274,1 50186U 21125AG  24007.85326876  .00000470  00000-0  47630-4 0  9994,2 50186  53.2155 213.8110 0001382  91.0621 269.0530 15.08840050116916,6917.88,95.438,540.701,538.789,0.0
50186.0,STARLINK-3274,PAYLOAD,2024-01-07 23:39:28,15.08840411,0.0001383,53.2154,213.2162,91.2584,268.8566,4.9308e-05,4.97e-06,0.0,0 STARLINK-3274,1 50186U 21125AG  24007.98574851  .00000497  00000-0  49308-4 0  9999,2 50186  53.2154 213.2162 0001383  91.2584 268.8566 15.08840411116464,6917.879,95.438,540.701,538.787,0.0
50186.0,STARLINK-3274,PAYLOAD,2024-01-08 20:19:29,15.08837643,0.0001365,53.2157,209.3497,91.097,269.0178,6.6081e-05,7.64e-06,0.0,0 STARLINK-3274,1 50186U 21125AG  24008.84687137  .00000764  00000-0  66081-4 0  9991,2 50186  53.2157 209.3497 0001365  91.0970 269.0178 15.08837643117063,6917.888,95.438,540.697,538.808,0.0
50186.0,STARLINK-3274,PAYLOAD,2024-01-09 12:13:21,15.08838206,0.0001373,53.2155,206.376,93.4839,266.631,3.6029e-05,2.86e-06,0.0,0 STARLINK-3274,1 50186U 21125AG  24009.50927286  .00000286  00000-0  36029-4 0  9995,2 50186  53.2155 206.3760 0001373  93.4839 266.6310 15.08838206116695,6917.886,95.438,540.701,538.801,0.0
